{
  "type": "FeatureCollection",
  "features": [
    {
      "type": "Feature",
      "properties": {
        "norad_id": 66502,
        "name": "STARLINK-35922",
        "group": "last-30-days",
        "lat": -41.55801325562075,
        "lon": 70.76594990645648,
        "alt_km": 417.3919273588772,
        "timestamp": "2025-12-09T16:56:35.358607+00:00",
        "meta_object_name": "STARLINK-35922",
        "meta_object_id": "2025-263T",
        "meta_epoch": "2025-12-09T12:00:02.000160",
        "meta_mean_motion": 15.50590724,
        "meta_eccentricity": 0.0001542,
        "meta_inclination": 43.0002,
        "meta_ra_of_asc_node": 144.0277,
        "meta_arg_of_pericenter": 265.8852,
        "meta_mean_anomaly": 306.5011,
        "meta_ephemeris_type": 0,
        "meta_classification_type": "U",
        "meta_norad_cat_id": 66502,
        "meta_element_set_no": 999,
        "meta_rev_at_epoch": 511,
        "meta_bstar": -0.0013495,
        "meta_mean_motion_dot": -0.00078752,
        "meta_mean_motion_ddot": 0,
        "tle_line1": "1 66502U 25263T   25343.50002315 -.00078752  00000+0 -13495-2 0  9994",
        "tle_line2": "2 66502  43.0002 144.0277 0001542 265.8852 306.5011 15.50590724  5114"
      },
      "geometry": {
        "type": "Point",
        "coordinates": [
          70.76594990645648,
          -41.55801325562075
        ]
      }
    },
    {
      "type": "Feature",
      "properties": {
        "norad_id": 66503,
        "name": "STARLINK-35917",
        "group": "last-30-days",
        "lat": -40.6568284417377,
        "lon": 75.64691342757612,
        "alt_km": 417.3628166514027,
        "timestamp": "2025-12-09T16:56:35.358617+00:00",
        "meta_object_name": "STARLINK-35917",
        "meta_object_id": "2025-263U",
        "meta_epoch": "2025-12-09T06:00:02.000160",
        "meta_mean_motion": 15.50595058,
        "meta_eccentricity": 0.00016709,
        "meta_inclination": 43.0005,
        "meta_ra_of_asc_node": 145.4785,
        "meta_arg_of_pericenter": 279.0144,
        "meta_mean_anomaly": 340.0209,
        "meta_ephemeris_type": 0,
        "meta_classification_type": "U",
        "meta_norad_cat_id": 66503,
        "meta_element_set_no": 999,
        "meta_rev_at_epoch": 507,
        "meta_bstar": -0.001563883,
        "meta_mean_motion_dot": -0.00091081,
        "meta_mean_motion_ddot": 0,
        "tle_line1": "1 66503U 25263U   25343.25002315 -.00091081  00000+0 -15639-2 0  9999",
        "tle_line2": "2 66503  43.0005 145.4785 0001670 279.0144 340.0209 15.50595058  5072"
      },
      "geometry": {
        "type": "Point",
        "coordinates": [
          75.64691342757612,
          -40.6568284417377
        ]
      }
    },
    {
      "type": "Feature",
      "properties": {
        "norad_id": 66504,
        "name": "STARLINK-35916",
        "group": "last-30-days",
        "lat": 37.28637877351962,
        "lon": -90.68160632732302,
        "alt_km": 438.9650591179052,
        "timestamp": "2025-12-09T16:56:35.358627+00:00",
        "meta_object_name": "STARLINK-35916",
        "meta_object_id": "2025-263V",
        "meta_epoch": "2025-12-09T12:00:02.000160",
        "meta_mean_motion": 15.40650197,
        "meta_eccentricity": 0.000141,
        "meta_inclination": 43.0003,
        "meta_ra_of_asc_node": 145.3003,
        "meta_arg_of_pericenter": 259.8258,
        "meta_mean_anomaly": 153.8609,
        "meta_ephemeris_type": 0,
        "meta_classification_type": "U",
        "meta_norad_cat_id": 66504,
        "meta_element_set_no": 999,
        "meta_rev_at_epoch": 511,
        "meta_bstar": 0.0012635,
        "meta_mean_motion_dot": 0.00052756,
        "meta_mean_motion_ddot": 0,
        "tle_line1": "1 66504U 25263V   25343.50002315  .00052756  00000+0  12635-2 0  9995",
        "tle_line2": "2 66504  43.0003 145.3003 0001410 259.8258 153.8609 15.40650197  5111"
      },
      "geometry": {
        "type": "Point",
        "coordinates": [
          -90.68160632732302,
          37.28637877351962
        ]
      }
    },
    {
      "type": "Feature",
      "properties": {
        "norad_id": 66505,
        "name": "STARLINK-34766",
        "group": "last-30-days",
        "lat": -42.25448864569725,
        "lon": 65.69559234179859,
        "alt_km": 417.32934351490076,
        "timestamp": "2025-12-09T16:56:35.358637+00:00",
        "meta_object_name": "STARLINK-34766",
        "meta_object_id": "2025-263W",
        "meta_epoch": "2025-12-09T12:00:02.000160",
        "meta_mean_motion": 15.50568438,
        "meta_eccentricity": 0.0001627,
        "meta_inclination": 43.0005,
        "meta_ra_of_asc_node": 144.0373,
        "meta_arg_of_pericenter": 275.9356,
        "meta_mean_anomaly": 292.6137,
        "meta_ephemeris_type": 0,
        "meta_classification_type": "U",
        "meta_norad_cat_id": 66505,
        "meta_element_set_no": 999,
        "meta_rev_at_epoch": 511,
        "meta_bstar": -0.00045216,
        "meta_mean_motion_dot": -0.00026767,
        "meta_mean_motion_ddot": 0,
        "tle_line1": "1 66505U 25263W   25343.50002315 -.00026767  00000+0 -45216-3 0  9993",
        "tle_line2": "2 66505  43.0005 144.0373 0001627 275.9356 292.6137 15.50568438  5113"
      },
      "geometry": {
        "type": "Point",
        "coordinates": [
          65.69559234179859,
          -42.25448864569725
        ]
      }
    },
    {
      "type": "Feature",
      "properties": {
        "norad_id": 66506,
        "name": "STARLINK-34765",
        "group": "last-30-days",
        "lat": -41.93396173419703,
        "lon": 68.24810278491013,
        "alt_km": 417.3851588517591,
        "timestamp": "2025-12-09T16:56:35.358650+00:00",
        "meta_object_name": "STARLINK-34765",
        "meta_object_id": "2025-263X",
        "meta_epoch": "2025-12-09T12:00:02.000160",
        "meta_mean_motion": 15.50579384,
        "meta_eccentricity": 0.0001533,
        "meta_inclination": 43.0005,
        "meta_ra_of_asc_node": 144.0328,
        "meta_arg_of_pericenter": 273.4878,
        "meta_mean_anomaly": 296.9836,
        "meta_ephemeris_type": 0,
        "meta_classification_type": "U",
        "meta_norad_cat_id": 66506,
        "meta_element_set_no": 999,
        "meta_rev_at_epoch": 511,
        "meta_bstar": -0.0009299,
        "meta_mean_motion_dot": -0.00054517,
        "meta_mean_motion_ddot": 0,
        "tle_line1": "1 66506U 25263X   25343.50002315 -.00054517  00000+0 -92990-3 0  9999",
        "tle_line2": "2 66506  43.0005 144.0328 0001533 273.4878 296.9836 15.50579384  5117"
      },
      "geometry": {
        "type": "Point",
        "coordinates": [
          68.24810278491013,
          -41.93396173419703
        ]
      }
    },
    {
      "type": "Feature",
      "properties": {
        "norad_id": 66507,
        "name": "STARLINK-34767",
        "group": "last-30-days",
        "lat": -41.13024252508792,
        "lon": 73.23923616025758,
        "alt_km": 417.47925723469325,
        "timestamp": "2025-12-09T16:56:35.358661+00:00",
        "meta_object_name": "STARLINK-34767",
        "meta_object_id": "2025-263Y",
        "meta_epoch": "2025-12-09T12:00:02.000160",
        "meta_mean_motion": 15.50609497,
        "meta_eccentricity": 0.0001374,
        "meta_inclination": 43.0004,
        "meta_ra_of_asc_node": 144.021,
        "meta_arg_of_pericenter": 260.6368,
        "meta_mean_anomaly": 313.649,
        "meta_ephemeris_type": 0,
        "meta_classification_type": "U",
        "meta_norad_cat_id": 66507,
        "meta_element_set_no": 999,
        "meta_rev_at_epoch": 511,
        "meta_bstar": -0.0015159,
        "meta_mean_motion_dot": -0.00088373,
        "meta_mean_motion_ddot": 0,
        "tle_line1": "1 66507U 25263Y   25343.50002315 -.00088373  00000+0 -15159-2 0  9998",
        "tle_line2": "2 66507  43.0004 144.0210 0001374 260.6368 313.6490 15.50609497  5114"
      },
      "geometry": {
        "type": "Point",
        "coordinates": [
          73.23923616025758,
          -41.13024252508792
        ]
      }
    },
    {
      "type": "Feature",
      "properties": {
        "norad_id": 66508,
        "name": "STARLINK-35608",
        "group": "last-30-days",
        "lat": -39.53452092632205,
        "lon": 80.46535876900616,
        "alt_km": 417.32487510412193,
        "timestamp": "2025-12-09T16:56:35.358673+00:00",
        "meta_object_name": "STARLINK-35608",
        "meta_object_id": "2025-263Z",
        "meta_epoch": "2025-12-09T12:00:02.000160",
        "meta_mean_motion": 15.50583572,
        "meta_eccentricity": 0.0001497,
        "meta_inclination": 43.0003,
        "meta_ra_of_asc_node": 144.0083,
        "meta_arg_of_pericenter": 275.1145,
        "meta_mean_anomaly": 304.9389,
        "meta_ephemeris_type": 0,
        "meta_classification_type": "U",
        "meta_norad_cat_id": 66508,
        "meta_element_set_no": 999,
        "meta_rev_at_epoch": 511,
        "meta_bstar": -0.00101,
        "meta_mean_motion_dot": -0.00059156,
        "meta_mean_motion_ddot": 0,
        "tle_line1": "1 66508U 25263Z   25343.50002315 -.00059156  00000+0 -10100-2 0  9997",
        "tle_line2": "2 66508  43.0003 144.0083 0001497 275.1145 304.9389 15.50583572  5117"
      },
      "geometry": {
        "type": "Point",
        "coordinates": [
          80.46535876900616,
          -39.53452092632205
        ]
      }
    }
  ]
}